CCSDS_OMM_VERS = 2.0
CREATION_DATE  = 
ORIGINATOR     = 

OBJECT_NAME    = ARIANE 5 R/B
OBJECT_ID      = 2004-049H
CENTER_NAME    = EARTH
REF_FRAME      = TEME
TIME_SYSTEM    = UTC
MEAN_ELEMENT_THEORY = SGP/SGP4

EPOCH          = 2025-11-16T17:03:11.848320
MEAN_MOTION    = 14.84935767
ECCENTRICITY   = .0084616
INCLINATION    = 98.2507
RA_OF_ASC_NODE = 120.0619
ARG_OF_PERICENTER = 358.1271
MEAN_ANOMALY   = 1.9613

EPHEMERIS_TYPE = 0
CLASSIFICATION_TYPE = U
NORAD_CAT_ID   = 28499
ELEMENT_SET_NO = 999
REV_AT_EPOCH   = 12902
BSTAR          = .16856E-3
MEAN_MOTION_DOT = .1465E-4
MEAN_MOTION_DDOT = 0

CCSDS_OMM_VERS = 2.0
CREATION_DATE  = 
ORIGINATOR     = 

OBJECT_NAME    = CZ-2D R/B
OBJECT_ID      = 2005-024B
CENTER_NAME    = EARTH
REF_FRAME      = TEME
TIME_SYSTEM    = UTC
MEAN_ELEMENT_THEORY = SGP/SGP4

EPOCH          = 2025-11-16T19:23:14.439264
MEAN_MOTION    = 15.51512698
ECCENTRICITY   = .0008183
INCLINATION    = 97.3657
RA_OF_ASC_NODE = 327.6078
ARG_OF_PERICENTER = 79.1459
MEAN_ANOMALY   = 281.0713

EPHEMERIS_TYPE = 0
CLASSIFICATION_TYPE = U
NORAD_CAT_ID   = 28738
ELEMENT_SET_NO = 999
REV_AT_EPOCH   = 12223
BSTAR          = .63086E-3
MEAN_MOTION_DOT = .3737E-3
MEAN_MOTION_DDOT = 0

CCSDS_OMM_VERS = 2.0
CREATION_DATE  = 
ORIGINATOR     = 

OBJECT_NAME    = ALOS (DAICHI)
OBJECT_ID      = 2006-002A
CENTER_NAME    = EARTH
REF_FRAME      = TEME
TIME_SYSTEM    = UTC
MEAN_ELEMENT_THEORY = SGP/SGP4

EPOCH          = 2025-11-16T19:40:04.031040
MEAN_MOTION    = 14.69372582
ECCENTRICITY   = .0000911
INCLINATION    = 98.1045
RA_OF_ASC_NODE = 272.4976
ARG_OF_PERICENTER = 58.2078
MEAN_ANOMALY   = 301.9217

EPHEMERIS_TYPE = 0
CLASSIFICATION_TYPE = U
NORAD_CAT_ID   = 28931
ELEMENT_SET_NO = 999
REV_AT_EPOCH   = 5690
BSTAR          = .49559E-3
MEAN_MOTION_DOT = .2881E-4
MEAN_MOTION_DDOT = 0

CCSDS_OMM_VERS = 2.0
CREATION_DATE  = 
ORIGINATOR     = 

OBJECT_NAME    = H-2A R/B
OBJECT_ID      = 2006-002B
CENTER_NAME    = EARTH
REF_FRAME      = TEME
TIME_SYSTEM    = UTC
MEAN_ELEMENT_THEORY = SGP/SGP4

EPOCH          = 2025-11-16T08:26:47.226336
MEAN_MOTION    = 15.13854596
ECCENTRICITY   = .0054378
INCLINATION    = 98.2298
RA_OF_ASC_NODE = 92.9639
ARG_OF_PERICENTER = 266.5477
MEAN_ANOMALY   = 92.9532

EPHEMERIS_TYPE = 0
CLASSIFICATION_TYPE = U
NORAD_CAT_ID   = 28932
ELEMENT_SET_NO = 999
REV_AT_EPOCH   = 7727
BSTAR          = .73240281E-3
MEAN_MOTION_DOT = .13671E-3
MEAN_MOTION_DDOT = 0

CCSDS_OMM_VERS = 2.0
CREATION_DATE  = 
ORIGINATOR     = 

OBJECT_NAME    = RESURS-DK 1
OBJECT_ID      = 2006-021A
CENTER_NAME    = EARTH
REF_FRAME      = TEME
TIME_SYSTEM    = UTC
MEAN_ELEMENT_THEORY = SGP/SGP4

EPOCH          = 2025-11-16T18:22:28.377408
MEAN_MOTION    = 15.11955082
ECCENTRICITY   = .0007131
INCLINATION    = 69.9316
RA_OF_ASC_NODE = 168.9530
ARG_OF_PERICENTER = 281.8565
MEAN_ANOMALY   = 78.1801

EPHEMERIS_TYPE = 0
CLASSIFICATION_TYPE = U
NORAD_CAT_ID   = 29228
ELEMENT_SET_NO = 999
REV_AT_EPOCH   = 7045
BSTAR          = .21419E-3
MEAN_MOTION_DOT = .3577E-4
MEAN_MOTION_DDOT = 0

CCSDS_OMM_VERS = 2.0
CREATION_DATE  = 
ORIGINATOR     = 

OBJECT_NAME    = CZ-4B R/B
OBJECT_ID      = 2006-046C
CENTER_NAME    = EARTH
REF_FRAME      = TEME
TIME_SYSTEM    = UTC
MEAN_ELEMENT_THEORY = SGP/SGP4

EPOCH          = 2025-11-16T08:40:36.109920
MEAN_MOTION    = 15.15507960
ECCENTRICITY   = .00328365
INCLINATION    = 97.5779
RA_OF_ASC_NODE = 0.5727
ARG_OF_PERICENTER = 301.5279
MEAN_ANOMALY   = 58.2747

EPHEMERIS_TYPE = 0
CLASSIFICATION_TYPE = U
NORAD_CAT_ID   = 29507
ELEMENT_SET_NO = 999
REV_AT_EPOCH   = 4287
BSTAR          = .37704828E-3
MEAN_MOTION_DOT = .717E-4
MEAN_MOTION_DDOT = 0

CCSDS_OMM_VERS = 2.0
CREATION_DATE  = 
ORIGINATOR     = 

OBJECT_NAME    = CZ-2C R/B
OBJECT_ID      = 2007-010B
CENTER_NAME    = EARTH
REF_FRAME      = TEME
TIME_SYSTEM    = UTC
MEAN_ELEMENT_THEORY = SGP/SGP4

EPOCH          = 2025-11-16T07:10:22.082016
MEAN_MOTION    = 14.20194362
ECCENTRICITY   = .00578925
INCLINATION    = 98.3966
RA_OF_ASC_NODE = 74.2823
ARG_OF_PERICENTER = 263.7390
MEAN_ANOMALY   = 95.7191

EPHEMERIS_TYPE = 0
CLASSIFICATION_TYPE = U
NORAD_CAT_ID   = 31114
ELEMENT_SET_NO = 999
REV_AT_EPOCH   = 96362
BSTAR          = .16808651E-3
MEAN_MOTION_DOT = .323E-5
MEAN_MOTION_DDOT = 0

CCSDS_OMM_VERS = 2.0
CREATION_DATE  = 
ORIGINATOR     = 

OBJECT_NAME    = COSMO-SKYMED 1
OBJECT_ID      = 2007-023A
CENTER_NAME    = EARTH
REF_FRAME      = TEME
TIME_SYSTEM    = UTC
MEAN_ELEMENT_THEORY = SGP/SGP4

EPOCH          = 2025-11-16T19:54:54.721728
MEAN_MOTION    = 14.95501251
ECCENTRICITY   = .0001186
INCLINATION    = 97.8848
RA_OF_ASC_NODE = 146.0636
ARG_OF_PERICENTER = 78.8499
MEAN_ANOMALY   = 281.2855

EPHEMERIS_TYPE = 0
CLASSIFICATION_TYPE = U
NORAD_CAT_ID   = 31598
ELEMENT_SET_NO = 999
REV_AT_EPOCH   = 99802
BSTAR          = .48776E-3
MEAN_MOTION_DOT = .5344E-4
MEAN_MOTION_DDOT = 0

CCSDS_OMM_VERS = 2.0
CREATION_DATE  = 
ORIGINATOR     = 

OBJECT_NAME    = COSMOS 2428
OBJECT_ID      = 2007-029A
CENTER_NAME    = EARTH
REF_FRAME      = TEME
TIME_SYSTEM    = UTC
MEAN_ELEMENT_THEORY = SGP/SGP4

EPOCH          = 2025-11-16T18:07:56.376768
MEAN_MOTION    = 14.12888460
ECCENTRICITY   = .0002307
INCLINATION    = 70.9368
RA_OF_ASC_NODE = 80.4317
ARG_OF_PERICENTER = 68.5617
MEAN_ANOMALY   = 291.5750

EPHEMERIS_TYPE = 0
CLASSIFICATION_TYPE = U
NORAD_CAT_ID   = 31792
ELEMENT_SET_NO = 999
REV_AT_EPOCH   = 94814
BSTAR          = -.41806E-4
MEAN_MOTION_DOT = -.126E-5
MEAN_MOTION_DDOT = 0

CCSDS_OMM_VERS = 2.0
CREATION_DATE  = 
ORIGINATOR     = 

OBJECT_NAME    = SL-16 R/B
OBJECT_ID      = 2007-029B
CENTER_NAME    = EARTH
REF_FRAME      = TEME
TIME_SYSTEM    = UTC
MEAN_ELEMENT_THEORY = SGP/SGP4

EPOCH          = 2025-11-16T17:53:39.216192
MEAN_MOTION    = 14.14812915
ECCENTRICITY   = .0002161
INCLINATION    = 70.9774
RA_OF_ASC_NODE = 49.7968
ARG_OF_PERICENTER = 260.9424
MEAN_ANOMALY   = 267.1840

EPHEMERIS_TYPE = 0
CLASSIFICATION_TYPE = U
NORAD_CAT_ID   = 31793
ELEMENT_SET_NO = 999
REV_AT_EPOCH   = 94939
BSTAR          = .22196E-3
MEAN_MOTION_DOT = .38E-5
MEAN_MOTION_DDOT = 0

CCSDS_OMM_VERS = 2.0
CREATION_DATE  = 
ORIGINATOR     = 

OBJECT_NAME    = KORONAS-FOTON
OBJECT_ID      = 2009-003A
CENTER_NAME    = EARTH
REF_FRAME      = TEME
TIME_SYSTEM    = UTC
MEAN_ELEMENT_THEORY = SGP/SGP4

EPOCH          = 2025-11-16T15:31:15.900384
MEAN_MOTION    = 15.40404678
ECCENTRICITY   = .0011298
INCLINATION    = 82.4339
RA_OF_ASC_NODE = 33.1217
ARG_OF_PERICENTER = 197.3748
MEAN_ANOMALY   = 162.7113

EPHEMERIS_TYPE = 0
CLASSIFICATION_TYPE = U
NORAD_CAT_ID   = 33504
ELEMENT_SET_NO = 999
REV_AT_EPOCH   = 92832
BSTAR          = .431E-3
MEAN_MOTION_DOT = .1751E-3
MEAN_MOTION_DDOT = 0

CCSDS_OMM_VERS = 2.0
CREATION_DATE  = 
ORIGINATOR     = 

OBJECT_NAME    = CZ-2C R/B
OBJECT_ID      = 2011-030B
CENTER_NAME    = EARTH
REF_FRAME      = TEME
TIME_SYSTEM    = UTC
MEAN_ELEMENT_THEORY = SGP/SGP4

EPOCH          = 2025-11-16T20:12:33.920928
MEAN_MOTION    = 14.80773393
ECCENTRICITY   = .0053097
INCLINATION    = 97.8365
RA_OF_ASC_NODE = 275.5305
ARG_OF_PERICENTER = 359.3813
MEAN_ANOMALY   = 23.2778

EPHEMERIS_TYPE = 0
CLASSIFICATION_TYPE = U
NORAD_CAT_ID   = 37731
ELEMENT_SET_NO = 999
REV_AT_EPOCH   = 77339
BSTAR          = .40163E-3
MEAN_MOTION_DOT = .3116E-4
MEAN_MOTION_DDOT = 0

