ARIANE 5 R/B            
1 28499U 04049H   25320.71055380  .00001465  00000+0  16856-3 0  9994
2 28499  98.2507 120.0619 0084616 358.1271   1.9613 14.84935767129024
CZ-2D R/B               
1 28738U 05024B   25320.80780601  .00037370  00000+0  63086-3 0  9996
2 28738  97.3657 327.6078 0008183  79.1459 281.0713 15.51512698122230
ALOS (DAICHI)           
1 28931U 06002A   25320.81949110  .00002881  00000+0  49559-3 0  9999
2 28931  98.1045 272.4976 0000911  58.2078 301.9217 14.69372582 56900
H-2A R/B                
1 28932U 06002B   25320.35193549  .00013671  00000+0  73240-3 0  9999
2 28932  98.2298  92.9639 0054378 266.5477  92.9532 15.13854596 77276
RESURS-DK 1             
1 29228U 06021A   25320.76560622  .00003577  00000+0  21419-3 0  9999
2 29228  69.9316 168.9530 0007131 281.8565  78.1801 15.11955082 70456
CZ-4B R/B               
1 29507U 06046C   25320.36152905  .00007170  00000+0  37705-3 0  9991
2 29507  97.5779   0.5727 0032836 301.5279  58.2747 15.15507960 42872
CZ-2C R/B               
1 31114U 07010B   25320.29886669  .00000323  00000+0  16809-3 0  9998
2 31114  98.3966  74.2823 0057892 263.7390  95.7191 14.20194362963620
COSMO-SKYMED 1          
1 31598U 07023A   25320.82980002  .00005344  00000+0  48776-3 0  9999
2 31598  97.8848 146.0636 0001186  78.8499 281.2855 14.95501251998021
COSMOS 2428             
1 31792U 07029A   25320.75551362 -.00000126  00000+0 -41806-4 0  9999
2 31792  70.9368  80.4317 0002307  68.5617 291.5750 14.12888460948142
SL-16 R/B               
1 31793U 07029B   25320.74559278  .00000380  00000+0  22196-3 0  9993
2 31793  70.9774  49.7968 0002161 260.9424 267.1840 14.14812915949397
KORONAS-FOTON           
1 33504U 09003A   25320.64671181  .00017510  00000+0  43100-3 0  9997
2 33504  82.4339  33.1217 0011298 197.3748 162.7113 15.40404678928327
CZ-2C R/B               
1 37731U 11030B   25320.84205927  .00003116  00000+0  40163-3 0  9992
2 37731  97.8365 275.5305 0053097 359.3813  23.2778 14.80773393773397
